ONEWEB-0385             
1 49311U 21090AJ  21319.91667824 -.01095276  00000+0 -94758-1 0  9994
2 49311  87.2250 282.0728 0013715 124.4237  56.3493 15.00225490  6265
ONEWEB-0386             
1 49312U 21090AK  21319.91667824 -.01085498  00000+0 -10579+0 0  9997
2 49312  87.2161 282.1096 0008302 130.8777  12.1507 14.95683506  6245
ONEWEB-0387             
1 49313U 21090AL  21319.91667824 -.01087851  00000+0 -99414-1 0  9990
2 49313  87.2262 282.0997 0011055 147.6710 199.7321 14.98147140  6258
ONEWEB-0388             
1 49314U 21090AM  21319.91667824 -.01167755  00000+0 -14019+0 0  9999
2 49314  87.4636 282.4906 0008229 153.9544 148.3633 14.87119200  6221
